{"fetched_at":"2026-07-23T07:05:23.680Z","source":"https://celestrak.org/NORAD/elements/gp.php?GROUP=spire&FORMAT=JSON","constellation":"spire","records":[{"OBJECT_NAME":"LEMUR-2-LEIA-PHILIP","OBJECT_ID":"2025-052AN","EPOCH":"2026-07-22T16:30:24.630048","CLASSIFICATION_TYPE":"U","MEAN_MOTION":14.97398184,"ECCENTRICITY":0.00050902,"INCLINATION":97.6785,"RA_OF_ASC_NODE":95.0351,"ARG_OF_PERICENTER":104.2609,"MEAN_ANOMALY":255.9179,"EPHEMERIS_TYPE":0,"NORAD_CAT_ID":63246,"ELEMENT_SET_NO":999,"REV_AT_EPOCH":7398,"BSTAR":0.000070137992,"MEAN_MOTION_DOT":0.00000758,"MEAN_MOTION_DDOT":0},{"OBJECT_NAME":"LEMUR-2-LIA-MARTIN","OBJECT_ID":"2025-052AQ","EPOCH":"2026-07-22T06:40:46.651872","CLASSIFICATION_TYPE":"U","MEAN_MOTION":14.980605,"ECCENTRICITY":0.00047501,"INCLINATION":97.6844,"RA_OF_ASC_NODE":95.1638,"ARG_OF_PERICENTER":72.622,"MEAN_ANOMALY":287.5521,"EPHEMERIS_TYPE":0,"NORAD_CAT_ID":63248,"ELEMENT_SET_NO":999,"REV_AT_EPOCH":7393,"BSTAR":0.00028273444,"MEAN_MOTION_DOT":0.00003286,"MEAN_MOTION_DDOT":0},{"OBJECT_NAME":"LEMUR-2-DELOITTE-1","OBJECT_ID":"2025-052BB","EPOCH":"2026-07-22T22:16:16.806720","CLASSIFICATION_TYPE":"U","MEAN_MOTION":14.97828481,"ECCENTRICITY":0.00025168,"INCLINATION":97.6886,"RA_OF_ASC_NODE":96.1336,"ARG_OF_PERICENTER":54.3603,"MEAN_ANOMALY":305.7853,"EPHEMERIS_TYPE":0,"NORAD_CAT_ID":63259,"ELEMENT_SET_NO":999,"REV_AT_EPOCH":7404,"BSTAR":0.00033409558,"MEAN_MOTION_DOT":0.0000387,"MEAN_MOTION_DDOT":0},{"OBJECT_NAME":"LEMUR-2-EMERSONROSE","OBJECT_ID":"2025-052BD","EPOCH":"2026-07-22T22:25:30.028512","CLASSIFICATION_TYPE":"U","MEAN_MOTION":14.99335715,"ECCENTRICITY":0.00022394,"INCLINATION":97.6884,"RA_OF_ASC_NODE":96.771,"ARG_OF_PERICENTER":41.2716,"MEAN_ANOMALY":318.8676,"EPHEMERIS_TYPE":0,"NORAD_CAT_ID":63261,"ELEMENT_SET_NO":999,"REV_AT_EPOCH":7409,"BSTAR":0.00030242934,"MEAN_MOTION_DOT":0.00003638,"MEAN_MOTION_DDOT":0},{"OBJECT_NAME":"LEMUR-2-MARACHE-FRAN","OBJECT_ID":"2025-052BE","EPOCH":"2026-07-22T16:26:29.554656","CLASSIFICATION_TYPE":"U","MEAN_MOTION":15.00352389,"ECCENTRICITY":0.00061158,"INCLINATION":97.681,"RA_OF_ASC_NODE":96.8982,"ARG_OF_PERICENTER":223.0553,"MEAN_ANOMALY":137.0193,"EPHEMERIS_TYPE":0,"NORAD_CAT_ID":63262,"ELEMENT_SET_NO":999,"REV_AT_EPOCH":7408,"BSTAR":0.00031877406,"MEAN_MOTION_DOT":0.00003943,"MEAN_MOTION_DDOT":0},{"OBJECT_NAME":"LEMUR-2-THEFALCONER","OBJECT_ID":"2025-052BG","EPOCH":"2026-07-22T06:59:41.582400","CLASSIFICATION_TYPE":"U","MEAN_MOTION":14.97587786,"ECCENTRICITY":0.00009671,"INCLINATION":97.6807,"RA_OF_ASC_NODE":95.0892,"ARG_OF_PERICENTER":205.9281,"MEAN_ANOMALY":154.1893,"EPHEMERIS_TYPE":0,"NORAD_CAT_ID":63264,"ELEMENT_SET_NO":999,"REV_AT_EPOCH":7394,"BSTAR":0.00026833751,"MEAN_MOTION_DOT":0.00003077,"MEAN_MOTION_DDOT":0},{"OBJECT_NAME":"LEMUR-2-UNTITLED-SC","OBJECT_ID":"2025-061A","EPOCH":"2026-07-22T22:05:25.511424","CLASSIFICATION_TYPE":"U","MEAN_MOTION":15.13683344,"ECCENTRICITY":0.00199339,"INCLINATION":97.566,"RA_OF_ASC_NODE":179.0313,"ARG_OF_PERICENTER":137.6189,"MEAN_ANOMALY":222.6586,"EPHEMERIS_TYPE":0,"NORAD_CAT_ID":63351,"ELEMENT_SET_NO":999,"REV_AT_EPOCH":7299,"BSTAR":0.00018451061,"MEAN_MOTION_DOT":0.00003268,"MEAN_MOTION_DDOT":0},{"OBJECT_NAME":"LEMUR-2-ESPERANZA","OBJECT_ID":"2025-061B","EPOCH":"2026-07-22T21:29:07.683648","CLASSIFICATION_TYPE":"U","MEAN_MOTION":15.13788423,"ECCENTRICITY":0.00195564,"INCLINATION":97.5667,"RA_OF_ASC_NODE":179.1083,"ARG_OF_PERICENTER":137.0188,"MEAN_ANOMALY":223.2575,"EPHEMERIS_TYPE":0,"NORAD_CAT_ID":63352,"ELEMENT_SET_NO":999,"REV_AT_EPOCH":7299,"BSTAR":0.00019479,"MEAN_MOTION_DOT":0.00003464,"MEAN_MOTION_DDOT":0},{"OBJECT_NAME":"LEMUR-2-KREMPEL-BRO2","OBJECT_ID":"2025-061C","EPOCH":"2026-07-22T20:18:09.554688","CLASSIFICATION_TYPE":"U","MEAN_MOTION":15.14217263,"ECCENTRICITY":0.00206349,"INCLINATION":97.5713,"RA_OF_ASC_NODE":179.6381,"ARG_OF_PERICENTER":130.2151,"MEAN_ANOMALY":230.089,"EPHEMERIS_TYPE":0,"NORAD_CAT_ID":63353,"ELEMENT_SET_NO":999,"REV_AT_EPOCH":7300,"BSTAR":0.00019102531,"MEAN_MOTION_DOT":0.00003439,"MEAN_MOTION_DDOT":0},{"OBJECT_NAME":"LEMUR-2-THERMORAPTOR","OBJECT_ID":"2025-061D","EPOCH":"2026-07-22T21:24:42.843456","CLASSIFICATION_TYPE":"U","MEAN_MOTION":15.143003,"ECCENTRICITY":0.00203749,"INCLINATION":97.5719,"RA_OF_ASC_NODE":179.7666,"ARG_OF_PERICENTER":129.053,"MEAN_ANOMALY":231.2519,"EPHEMERIS_TYPE":0,"NORAD_CAT_ID":63354,"ELEMENT_SET_NO":999,"REV_AT_EPOCH":7301,"BSTAR":0.00021164138,"MEAN_MOTION_DOT":0.00003826,"MEAN_MOTION_DDOT":0},{"OBJECT_NAME":"LEMUR-2-NEUROSPICY","OBJECT_ID":"2025-061E","EPOCH":"2026-07-22T22:15:05.609664","CLASSIFICATION_TYPE":"U","MEAN_MOTION":15.14419013,"ECCENTRICITY":0.00182162,"INCLINATION":97.5645,"RA_OF_ASC_NODE":179.4,"ARG_OF_PERICENTER":131.8778,"MEAN_ANOMALY":228.4012,"EPHEMERIS_TYPE":0,"NORAD_CAT_ID":63355,"ELEMENT_SET_NO":999,"REV_AT_EPOCH":7302,"BSTAR":0.00019179429,"MEAN_MOTION_DOT":0.00003469,"MEAN_MOTION_DDOT":0},{"OBJECT_NAME":"LEMUR-2-TILLINFINITY","OBJECT_ID":"2025-061F","EPOCH":"2026-07-22T21:10:55.350912","CLASSIFICATION_TYPE":"U","MEAN_MOTION":15.15007927,"ECCENTRICITY":0.0019614,"INCLINATION":97.5632,"RA_OF_ASC_NODE":179.6712,"ARG_OF_PERICENTER":121.1672,"MEAN_ANOMALY":239.1486,"EPHEMERIS_TYPE":0,"NORAD_CAT_ID":63356,"ELEMENT_SET_NO":999,"REV_AT_EPOCH":7304,"BSTAR":0.00025228389,"MEAN_MOTION_DOT":0.00004666,"MEAN_MOTION_DDOT":0},{"OBJECT_NAME":"LEMUR-2-KREMPEL-BRO1","OBJECT_ID":"2025-061G","EPOCH":"2026-07-22T17:29:02.996160","CLASSIFICATION_TYPE":"U","MEAN_MOTION":15.14808413,"ECCENTRICITY":0.00202589,"INCLINATION":97.5632,"RA_OF_ASC_NODE":179.424,"ARG_OF_PERICENTER":122.9596,"MEAN_ANOMALY":237.3587,"EPHEMERIS_TYPE":0,"NORAD_CAT_ID":63357,"ELEMENT_SET_NO":999,"REV_AT_EPOCH":7301,"BSTAR":0.0001812237,"MEAN_MOTION_DOT":0.00003314,"MEAN_MOTION_DDOT":0},{"OBJECT_NAME":"LEMUR-2-LANGER2SPACE","OBJECT_ID":"2025-061H","EPOCH":"2026-07-22T21:27:47.143296","CLASSIFICATION_TYPE":"U","MEAN_MOTION":15.14503456,"ECCENTRICITY":0.00180948,"INCLINATION":97.5638,"RA_OF_ASC_NODE":179.3885,"ARG_OF_PERICENTER":130.2936,"MEAN_ANOMALY":229.9881,"EPHEMERIS_TYPE":0,"NORAD_CAT_ID":63358,"ELEMENT_SET_NO":999,"REV_AT_EPOCH":7302,"BSTAR":0.00020195941,"MEAN_MOTION_DOT":0.00003665,"MEAN_MOTION_DDOT":0},{"OBJECT_NAME":"LEMUR-2-BALTO","OBJECT_ID":"2025-052BH","EPOCH":"2026-07-22T16:03:34.966080","CLASSIFICATION_TYPE":"U","MEAN_MOTION":15.00408258,"ECCENTRICITY":0.0004997,"INCLINATION":97.6917,"RA_OF_ASC_NODE":96.8811,"ARG_OF_PERICENTER":294.8468,"MEAN_ANOMALY":65.2236,"EPHEMERIS_TYPE":0,"NORAD_CAT_ID":63395,"ELEMENT_SET_NO":999,"REV_AT_EPOCH":7408,"BSTAR":0.00033051741,"MEAN_MOTION_DOT":0.00004096,"MEAN_MOTION_DDOT":0},{"OBJECT_NAME":"LEMUR-2-KRISH","OBJECT_ID":"2025-135AK","EPOCH":"2026-07-22T13:58:45.757056","CLASSIFICATION_TYPE":"U","MEAN_MOTION":14.96488813,"ECCENTRICITY":0.00012248,"INCLINATION":97.7759,"RA_OF_ASC_NODE":318.2257,"ARG_OF_PERICENTER":110.9382,"MEAN_ANOMALY":249.197,"EPHEMERIS_TYPE":0,"NORAD_CAT_ID":64561,"ELEMENT_SET_NO":999,"REV_AT_EPOCH":5921,"BSTAR":0.00039382845,"MEAN_MOTION_DOT":0.00004415,"MEAN_MOTION_DDOT":0}]}
